CCSDS_OMM_VERS = 2.0
CREATION_DATE  = 
ORIGINATOR     = 

OBJECT_NAME    = COSMOS 1933
OBJECT_ID      = 1988-020A
CENTER_NAME    = EARTH
REF_FRAME      = TEME
TIME_SYSTEM    = UTC
MEAN_ELEMENT_THEORY = SGP/SGP4

EPOCH          = 2026-02-24T12:57:20.566368
MEAN_MOTION    = 15.17850147
ECCENTRICITY   = .0002754
INCLINATION    = 82.5099
RA_OF_ASC_NODE = 263.9243
ARG_OF_PERICENTER = 237.0172
MEAN_ANOMALY   = 123.0797

EPHEMERIS_TYPE = 0
CLASSIFICATION_TYPE = U
NORAD_CAT_ID   = 18958
ELEMENT_SET_NO = 999
REV_AT_EPOCH   = 4823
BSTAR          = .17205E-3
MEAN_MOTION_DOT = .3512E-4
MEAN_MOTION_DDOT = 0

CCSDS_OMM_VERS = 2.0
CREATION_DATE  = 
ORIGINATOR     = 

OBJECT_NAME    = SL-3 R/B
OBJECT_ID      = 1988-032B
CENTER_NAME    = EARTH
REF_FRAME      = TEME
TIME_SYSTEM    = UTC
MEAN_ELEMENT_THEORY = SGP/SGP4

EPOCH          = 2026-02-24T18:17:34.519776
MEAN_MOTION    = 15.19730148
ECCENTRICITY   = .0024137
INCLINATION    = 97.5175
RA_OF_ASC_NODE = 39.0630
ARG_OF_PERICENTER = 280.1522
MEAN_ANOMALY   = 79.6990

EPHEMERIS_TYPE = 0
CLASSIFICATION_TYPE = U
NORAD_CAT_ID   = 19046
ELEMENT_SET_NO = 999
REV_AT_EPOCH   = 5014
BSTAR          = .27522E-3
MEAN_MOTION_DOT = .5856E-4
MEAN_MOTION_DDOT = 0

CCSDS_OMM_VERS = 2.0
CREATION_DATE  = 
ORIGINATOR     = 

OBJECT_NAME    = SL-16 R/B
OBJECT_ID      = 1988-039B
CENTER_NAME    = EARTH
REF_FRAME      = TEME
TIME_SYSTEM    = UTC
MEAN_ELEMENT_THEORY = SGP/SGP4

EPOCH          = 2026-02-24T19:17:26.939328
MEAN_MOTION    = 14.19613709
ECCENTRICITY   = .0021994
INCLINATION    = 71.0133
RA_OF_ASC_NODE = 95.7976
ARG_OF_PERICENTER = 353.5621
MEAN_ANOMALY   = 6.5218

EPHEMERIS_TYPE = 0
CLASSIFICATION_TYPE = U
NORAD_CAT_ID   = 19120
ELEMENT_SET_NO = 999
REV_AT_EPOCH   = 95655
BSTAR          = .18974E-4
MEAN_MOTION_DOT = -.8E-7
MEAN_MOTION_DDOT = 0

CCSDS_OMM_VERS = 2.0
CREATION_DATE  = 
ORIGINATOR     = 

OBJECT_NAME    = COSMOS 1953
OBJECT_ID      = 1988-050A
CENTER_NAME    = EARTH
REF_FRAME      = TEME
TIME_SYSTEM    = UTC
MEAN_ELEMENT_THEORY = SGP/SGP4

EPOCH          = 2026-02-24T17:28:12.008928
MEAN_MOTION    = 15.28254756
ECCENTRICITY   = .0011725
INCLINATION    = 82.5095
RA_OF_ASC_NODE = 171.2758
ARG_OF_PERICENTER = 165.2057
MEAN_ANOMALY   = 194.9528

EPHEMERIS_TYPE = 0
CLASSIFICATION_TYPE = U
NORAD_CAT_ID   = 19210
ELEMENT_SET_NO = 999
REV_AT_EPOCH   = 3580
BSTAR          = .33251E-3
MEAN_MOTION_DOT = .9203E-4
MEAN_MOTION_DDOT = 0

CCSDS_OMM_VERS = 2.0
CREATION_DATE  = 
ORIGINATOR     = 

OBJECT_NAME    = SL-8 R/B
OBJECT_ID      = 1988-053B
CENTER_NAME    = EARTH
REF_FRAME      = TEME
TIME_SYSTEM    = UTC
MEAN_ELEMENT_THEORY = SGP/SGP4

EPOCH          = 2026-02-24T12:34:58.399392
MEAN_MOTION    = 14.38907039
ECCENTRICITY   = .00210282
INCLINATION    = 74.0480
RA_OF_ASC_NODE = 136.7329
ARG_OF_PERICENTER = 318.0854
MEAN_ANOMALY   = 144.5691

EPHEMERIS_TYPE = 0
CLASSIFICATION_TYPE = U
NORAD_CAT_ID   = 19257
ELEMENT_SET_NO = 999
REV_AT_EPOCH   = 97470
BSTAR          = .83206738E-4
MEAN_MOTION_DOT = .23E-5
MEAN_MOTION_DDOT = 0

CCSDS_OMM_VERS = 2.0
CREATION_DATE  = 
ORIGINATOR     = 

OBJECT_NAME    = COSMOS 1975
OBJECT_ID      = 1988-093A
CENTER_NAME    = EARTH
REF_FRAME      = TEME
TIME_SYSTEM    = UTC
MEAN_ELEMENT_THEORY = SGP/SGP4

EPOCH          = 2026-02-24T05:36:58.332672
MEAN_MOTION    = 15.27827522
ECCENTRICITY   = .0010939
INCLINATION    = 82.5204
RA_OF_ASC_NODE = 131.1881
ARG_OF_PERICENTER = 211.1961
MEAN_ANOMALY   = 148.8630

EPHEMERIS_TYPE = 0
CLASSIFICATION_TYPE = U
NORAD_CAT_ID   = 19573
ELEMENT_SET_NO = 999
REV_AT_EPOCH   = 1735
BSTAR          = .28793E-3
MEAN_MOTION_DOT = .7867E-4
MEAN_MOTION_DDOT = 0

CCSDS_OMM_VERS = 2.0
CREATION_DATE  = 
ORIGINATOR     = 

OBJECT_NAME    = SL-14 R/B
OBJECT_ID      = 1988-093B
CENTER_NAME    = EARTH
REF_FRAME      = TEME
TIME_SYSTEM    = UTC
MEAN_ELEMENT_THEORY = SGP/SGP4

EPOCH          = 2026-02-24T18:02:03.469920
MEAN_MOTION    = 14.85638562
ECCENTRICITY   = .0022334
INCLINATION    = 82.5283
RA_OF_ASC_NODE = 54.1916
ARG_OF_PERICENTER = 81.6478
MEAN_ANOMALY   = 90.8712

EPHEMERIS_TYPE = 0
CLASSIFICATION_TYPE = U
NORAD_CAT_ID   = 19574
ELEMENT_SET_NO = 999
REV_AT_EPOCH   = 99911
BSTAR          = .5633E-4
MEAN_MOTION_DOT = .515E-5
MEAN_MOTION_DDOT = 0

CCSDS_OMM_VERS = 2.0
CREATION_DATE  = 
ORIGINATOR     = 

OBJECT_NAME    = SL-16 R/B
OBJECT_ID      = 1988-102B
CENTER_NAME    = EARTH
REF_FRAME      = TEME
TIME_SYSTEM    = UTC
MEAN_ELEMENT_THEORY = SGP/SGP4

EPOCH          = 2026-02-24T15:00:46.898784
MEAN_MOTION    = 14.16150948
ECCENTRICITY   = .0013196
INCLINATION    = 71.0002
RA_OF_ASC_NODE = 178.9825
ARG_OF_PERICENTER = 21.5342
MEAN_ANOMALY   = 338.6334

EPHEMERIS_TYPE = 0
CLASSIFICATION_TYPE = U
NORAD_CAT_ID   = 19650
ELEMENT_SET_NO = 999
REV_AT_EPOCH   = 92504
BSTAR          = -.97375E-4
MEAN_MOTION_DOT = -.241E-5
MEAN_MOTION_DDOT = 0

CCSDS_OMM_VERS = 2.0
CREATION_DATE  = 
ORIGINATOR     = 

OBJECT_NAME    = INTERCOSMOS 24
OBJECT_ID      = 1989-080A
CENTER_NAME    = EARTH
REF_FRAME      = TEME
TIME_SYSTEM    = UTC
MEAN_ELEMENT_THEORY = SGP/SGP4

EPOCH          = 2026-02-24T12:54:44.509824
MEAN_MOTION    = 12.59535688
ECCENTRICITY   = .1187097
INCLINATION    = 82.6044
RA_OF_ASC_NODE = 112.9674
ARG_OF_PERICENTER = 323.3752
MEAN_ANOMALY   = 29.1559

EPHEMERIS_TYPE = 0
CLASSIFICATION_TYPE = U
NORAD_CAT_ID   = 20261
ELEMENT_SET_NO = 999
REV_AT_EPOCH   = 66514
BSTAR          = .17807E-3
MEAN_MOTION_DOT = .604E-5
MEAN_MOTION_DDOT = 0

CCSDS_OMM_VERS = 2.0
CREATION_DATE  = 
ORIGINATOR     = 

OBJECT_NAME    = SL-14 R/B
OBJECT_ID      = 1989-080C
CENTER_NAME    = EARTH
REF_FRAME      = TEME
TIME_SYSTEM    = UTC
MEAN_ELEMENT_THEORY = SGP/SGP4

EPOCH          = 2026-02-24T18:03:51.089760
MEAN_MOTION    = 12.50474603
ECCENTRICITY   = .1230047
INCLINATION    = 82.5968
RA_OF_ASC_NODE = 181.4891
ARG_OF_PERICENTER = 214.3191
MEAN_ANOMALY   = 137.2185

EPHEMERIS_TYPE = 0
CLASSIFICATION_TYPE = U
NORAD_CAT_ID   = 20262
ELEMENT_SET_NO = 999
REV_AT_EPOCH   = 65853
BSTAR          = .18129E-3
MEAN_MOTION_DOT = .607E-5
MEAN_MOTION_DDOT = 0

CCSDS_OMM_VERS = 2.0
CREATION_DATE  = 
ORIGINATOR     = 

OBJECT_NAME    = DELTA 1 R/B
OBJECT_ID      = 1989-089B
CENTER_NAME    = EARTH
REF_FRAME      = TEME
TIME_SYSTEM    = UTC
MEAN_ELEMENT_THEORY = SGP/SGP4

EPOCH          = 2026-02-24T12:22:02.166240
MEAN_MOTION    = 14.50650688
ECCENTRICITY   = .00695428
INCLINATION    = 97.0714
RA_OF_ASC_NODE = 265.0487
ARG_OF_PERICENTER = 163.1254
MEAN_ANOMALY   = 197.2281

EPHEMERIS_TYPE = 0
CLASSIFICATION_TYPE = U
NORAD_CAT_ID   = 20323
ELEMENT_SET_NO = 999
REV_AT_EPOCH   = 89382
BSTAR          = .87067039E-4
MEAN_MOTION_DOT = .317E-5
MEAN_MOTION_DDOT = 0

CCSDS_OMM_VERS = 2.0
CREATION_DATE  = 
ORIGINATOR     = 

OBJECT_NAME    = ARIANE 40 R/B
OBJECT_ID      = 1990-005H
CENTER_NAME    = EARTH
REF_FRAME      = TEME
TIME_SYSTEM    = UTC
MEAN_ELEMENT_THEORY = SGP/SGP4

EPOCH          = 2026-02-24T04:38:14.882784
MEAN_MOTION    = 14.39860434
ECCENTRICITY   = .00091071
INCLINATION    = 98.3115
RA_OF_ASC_NODE = 116.2549
ARG_OF_PERICENTER = 241.5792
MEAN_ANOMALY   = 118.4479

EPHEMERIS_TYPE = 0
CLASSIFICATION_TYPE = U
NORAD_CAT_ID   = 20443
ELEMENT_SET_NO = 999
REV_AT_EPOCH   = 89086
BSTAR          = .87524992E-4
MEAN_MOTION_DOT = .233E-5
MEAN_MOTION_DDOT = 0

